[{"OBJECT_NAME":"YAOGAN-40 02A","OBJECT_ID":"2025-096A","EPOCH":"2026-03-09T23:00:41.577120","MEAN_MOTION":14.1242685,"ECCENTRICITY":0.00022356,"INCLINATION":85.9915,"RA_OF_ASC_NODE":232.4162,"ARG_OF_PERICENTER":82.7256,"MEAN_ANOMALY":277.4181,"EPHEMERIS_TYPE":0,"CLASSIFICATION_TYPE":"U","NORAD_CAT_ID":63918,"ELEMENT_SET_NO":999,"REV_AT_EPOCH":4256,"BSTAR":9.2662913e-5,"MEAN_MOTION_DOT":1.9e-6,"MEAN_MOTION_DDOT":0},{"OBJECT_NAME":"FENGYUN 1C DEB","OBJECT_ID":"1999-025UD","EPOCH":"2026-03-09T21:54:15.045696","MEAN_MOTION":14.13066981,"ECCENTRICITY":0.00687041,"INCLINATION":99.245,"RA_OF_ASC_NODE":55.7027,"ARG_OF_PERICENTER":319.4147,"MEAN_ANOMALY":69.6196,"EPHEMERIS_TYPE":0,"CLASSIFICATION_TYPE":"U","NORAD_CAT_ID":30172,"ELEMENT_SET_NO":999,"REV_AT_EPOCH":97748,"BSTAR":0.0019837335,"MEAN_MOTION_DOT":3.741e-5,"MEAN_MOTION_DDOT":0}]
